OBJECT_NAME,OBJECT_ID,EPOCH,MEAN_MOTION,ECCENTRICITY,INCLINATION,RA_OF_ASC_NODE,ARG_OF_PERICENTER,MEAN_ANOMALY,EPHEMERIS_TYPE,CLASSIFICATION_TYPE,NORAD_CAT_ID,ELEMENT_SET_NO,REV_AT_EPOCH,BSTAR,MEAN_MOTION_DOT,MEAN_MOTION_DDOT
ONEWEB-0513,2022-138U,2026-03-14T23:03:15.570432,13.20262571,.00014401,87.9233,323.7068,115.1297,244.9985,0,U,54131,999,16428,.12997934E-3,.65E-6,0
ONEWEB-0514,2022-138V,2026-03-14T22:22:23.008800,13.19724663,.00016527,87.9223,323.7470,76.5627,283.5690,0,U,54132,999,16439,.26306768E-3,.118E-5,0
ONEWEB-0515,2022-138W,2026-03-14T21:03:28.317312,13.20770136,.00022618,87.9169,293.2561,66.9471,293.1901,0,U,54133,999,16685,.43546492E-4,.31E-6,0
ONEWEB-0516,2022-138X,2026-03-14T16:18:28.336032,13.19725139,.00018409,87.9219,323.8086,84.6232,275.5111,0,U,54134,999,16436,.11255824E-3,.58E-6,0
ONEWEB-0517,2022-138Y,2026-03-14T23:05:36.081888,13.19724042,.00014331,87.9225,323.7414,78.2421,281.8873,0,U,54135,999,16440,.26476127E-3,.119E-5,0
ONEWEB-0518,2022-138Z,2026-03-14T23:32:53.310048,13.19739596,.0002,87.9219,323.7506,83.1470,276.9890,0,U,54136,999,16440,-.62628825E-2,-.2494E-4,0
ONEWEB-0519,2022-138AA,2026-03-14T22:20:07.116288,13.19725058,.00014682,87.9233,323.7408,80.8803,279.2496,0,U,54137,999,16440,-.90650676E-4,-.23E-6,0
ONEWEB-0520,2022-138AB,2026-03-14T23:10:09.643296,13.19722567,.00020316,87.9224,323.7396,96.2815,263.8549,0,U,54138,999,16439,.98356786E-3,.407E-5,0
ONEWEB-0521,2022-138AC,2026-03-14T22:08:44.502720,13.19724307,.00014754,87.9228,323.7323,78.2571,281.8727,0,U,54139,999,16433,-.25424859E-3,-.89E-6,0
ONEWEB-0522,2022-138AD,2026-03-14T23:28:20.598816,13.19724552,.00016698,87.9233,323.7228,86.0700,274.0624,0,U,54140,999,16438,-.21425797E-3,-.73E-6,0
ONEWEB-0523,2022-138AE,2026-03-14T20:45:17.480160,13.20770320,.00017282,87.9167,293.2733,58.8186,301.3117,0,U,54141,999,16685,.1363885E-3,.68E-6,0
ONEWEB-0524,2022-138AF,2026-03-14T20:29:23.255232,13.20769893,.0002441,87.9157,293.2746,73.4579,286.6822,0,U,54142,999,16685,.77221241E-4,.44E-6,0
ONEWEB-0525,2022-138AG,2026-03-14T22:06:28.158336,13.19724194,.000181,87.9224,323.7485,89.1713,270.9627,0,U,54143,999,16439,-.70831303E-4,-.15E-6,0
ONEWEB-0526,2022-138AH,2026-03-14T17:26:42.031104,13.19725025,.00018028,87.9235,323.7816,82.8824,277.2514,0,U,54144,999,16434,.11308947E-3,.58E-6,0
ONEWEB-0529,2022-138AJ,2026-03-14T22:58:47.167968,13.19724360,.00018235,87.9225,323.7535,87.5986,272.5356,0,U,54145,999,16439,.23252526E-3,.106E-5,0
ONEWEB-0531,2022-138AK,2026-03-14T20:08:55.584672,13.20769986,.000206,87.9164,293.2753,60.5222,299.6117,0,U,54146,999,16685,-.14202359E-3,-.45E-6,0
ONEWEB-0535,2022-138AL,2026-03-14T16:29:50.511552,13.19724645,.00015998,87.9230,323.7843,69.0448,291.0855,0,U,54147,999,16437,-.16463166E-3,-.53E-6,0
ONEWEB-0536,2022-138AM,2026-03-14T21:39:50.142816,13.20770235,.0002218,87.9151,293.2965,61.0806,299.0550,0,U,54148,999,16685,-.19474876E-3,-.66E-6,0
GONETS-M 23,2022-139A,2026-03-14T22:05:23.042976,12.42886732,.00226947,82.5055,46.8647,67.8325,292.5160,0,U,54150,999,15393,.22336675E-3,.41E-6,0
GONETS-M 24,2022-139B,2026-03-14T23:22:36.941088,12.42887278,.00179357,82.4974,45.9556,77.6118,282.6968,0,U,54151,999,15394,.17375965E-3,.34E-6,0
GONETS-M 25,2022-139C,2026-03-14T23:02:56.271264,12.42886630,.00218539,82.5038,46.5998,76.1625,284.1885,0,U,54152,999,15394,.26549558E-3,.47E-6,0
SKIF-D,2022-139D,2026-03-06T03:06:51.492096,5.00429106,.00073531,89.9562,96.7047,235.7019,124.2989,0,U,54153,999,5895,0,.25E-6,0
STARLINK-5290,2022-141A,2026-03-14T18:16:23.641536,15.08836762,.00014886,53.2181,351.3091,77.3771,282.7387,0,U,54157,999,18648,.68691713E-4,.805E-5,0
STARLINK-5297,2022-141B,2026-03-14T21:52:18.798816,15.08840218,.00015973,53.2189,350.8098,101.8560,258.2612,0,U,54158,999,18650,.36634525E-4,.295E-5,0
STARLINK-5294,2022-141C,2026-03-14T21:46:58.777536,15.08889578,.00014249,53.2192,350.8011,61.7982,298.3154,0,U,54159,999,18650,-.65490048E-3,-.1071E-3,0
STARLINK-5233,2022-141D,2026-03-14T21:18:28.281312,15.08991326,.00010832,53.2165,305.7522,127.1099,232.9992,0,U,54160,999,18713,-.22279267E-2,-.35716E-3,0
STARLINK-5269,2022-141E,2026-03-14T21:48:22.927680,15.08840823,.00014962,53.2205,350.7970,92.1376,267.9787,0,U,54161,999,18650,.4932155E-5,-.209E-5,0
STARLINK-5273,2022-141F,2026-03-14T18:25:37.223616,15.08844249,.00013598,53.2189,351.3372,97.0647,263.0500,0,U,54162,999,18648,-.24741748E-4,-.682E-5,0
STARLINK-5161,2022-141G,2026-03-14T21:53:39.724512,15.08833539,.00012075,53.2187,340.8440,84.5529,275.5601,0,U,54163,999,18664,.11633501E-3,.1564E-4,0
STARLINK-5278,2022-141H,2026-03-14T21:58:57.430272,15.08836112,.00013825,53.2197,340.8696,90.2860,269.8290,0,U,54164,999,18664,-.56365594E-4,-.1185E-4,0
STARLINK-5279,2022-141J,2026-03-14T11:58:45.764256,15.08853834,.00012913,53.2185,352.5057,106.2668,253.8466,0,U,54165,999,18644,-.37484213E-4,-.885E-5,0
STARLINK-5280,2022-141K,2026-03-14T21:48:20.418624,15.08838101,.00015063,53.2205,340.8225,86.8957,273.2208,0,U,54166,999,18664,.42482859E-4,.388E-5,0
STARLINK-5243,2022-141L,2026-03-14T22:39:57.770496,15.08826540,.00016329,53.2194,350.3133,84.5620,275.5558,0,U,54167,999,18651,.76348754E-4,.927E-5,0
STARLINK-5245,2022-141M,2026-03-14T21:43:02.334432,15.08829310,.00012747,53.2192,340.8007,93.2316,266.8822,0,U,54168,999,18664,-.47195988E-4,-.1039E-4,0
STARLINK-5282,2022-141N,2026-03-14T22:04:07.989888,15.08842609,.00014064,53.2183,340.1926,89.1533,270.9621,0,U,54169,999,18665,-.15171641E-4,-.529E-5,0
STARLINK-5155,2022-141P,2026-03-14T21:37:44.081760,15.08758542,.00018265,53.2192,340.7750,86.5106,273.6095,0,U,54170,999,18664,.10922378E-2,.17099E-3,0
STARLINK-5117,2022-141R,2026-03-14T21:27:07.560000,15.08838013,.00012698,53.2188,340.7308,86.3672,273.7466,0,U,54172,999,18664,.12198047E-3,.1654E-4,0
STARLINK-5242,2022-141S,2026-03-14T22:09:26.357472,15.08834878,.00011542,53.2180,340.2110,93.7418,266.3706,0,U,54173,999,18665,-.36061376E-4,-.862E-5,0
STARLINK-5248,2022-141T,2026-03-14T20:44:01.247712,15.08830801,.00016459,53.2168,285.6329,92.5207,267.5973,0,U,54174,999,18741,-.58572654E-4,-.122E-4,0
STARLINK-5256,2022-141U,2026-03-14T21:32:24.970272,15.08843847,.00013758,53.2177,340.7545,82.4137,277.7011,0,U,54175,999,18664,.73510556E-4,.882E-5,0
STARLINK-5154,2022-141V,2026-03-14T21:11:11.833440,15.08848249,.00013419,53.2172,340.6670,72.6424,287.4715,0,U,54176,999,18664,-.1742663E-3,-.3061E-4,0
STARLINK-5186,2022-141W,2026-03-14T21:21:48.249792,15.08843317,.00013024,53.2188,340.7050,92.7410,267.3731,0,U,54177,999,18664,-.685019E-5,-.397E-5,0
STARLINK-5164,2022-141X,2026-03-14T22:25:21.410112,15.08826311,.00012976,53.2181,340.2576,80.0265,280.0873,0,U,54178,999,18665,-.17548957E-3,-.3079E-4,0
STARLINK-5122,2022-141Y,2026-03-14T21:16:29.855424,15.08830723,.00012249,53.2182,340.6858,78.1333,281.9796,0,U,54179,999,18664,.70966741E-4,.841E-5,0
STARLINK-5228,2022-141Z,2026-03-14T22:00:01.999584,15.29482767,.00011341,53.2210,339.1490,98.5365,69.5540,0,U,54180,999,584,.34897777E-1,.1091627E-1,0
STARLINK-5227,2022-141AA,2026-03-14T22:35:58.682688,15.08855949,.00015848,53.2175,340.3227,94.7371,265.3803,0,U,54181,999,18665,.25883322E-3,.3835E-4,0
STARLINK-5231,2022-141AB,2026-03-14T22:02:49.795296,15.08837184,.00014401,53.2185,310.2838,87.3920,272.7237,0,U,54182,999,18707,.14703532E-4,-.54E-6,0
STARLINK-5239,2022-141AC,2026-03-14T22:14:44.259360,15.08846808,.00008735,53.2179,340.2297,86.4154,273.6938,0,U,54183,999,18665,-.52561162E-4,-.1124E-4,0
STARLINK-5162,2022-141AD,2026-03-14T22:21:32.890752,15.08846043,.00016738,53.2184,340.9505,96.8652,263.2531,0,U,54184,999,18664,.57959163E-4,.635E-5,0
STARLINK-5235,2022-141AE,2026-03-14T22:30:39.407904,15.08839031,.00011643,53.2194,340.3003,85.8654,274.2472,0,U,54185,999,18665,-.30172618E-4,-.768E-5,0
STARLINK-5240,2022-141AG,2026-03-14T22:41:15.463104,15.08856961,.00020734,53.2183,340.3509,84.4163,275.7065,0,U,54187,999,18665,.55060203E-3,.849E-4,0
STARLINK-5238,2022-141AH,2026-03-14T21:49:40.181376,15.08838441,.00014541,53.2193,330.8516,86.5175,273.5984,0,U,54188,999,18678,.20155817E-4,.33E-6,0
STARLINK-5281,2022-141AK,2026-03-14T23:19:45.147648,15.08835734,.00012308,53.2175,330.5294,94.0196,266.0937,0,U,54190,999,18679,-.11865593E-3,-.2176E-4,0
STARLINK-4619,2022-141AL,2026-03-14T22:00:17.172288,15.08834808,.00014388,53.2173,330.8964,84.0020,276.1136,0,U,54191,999,18678,-.86391628E-4,-.1662E-4,0
STARLINK-5268,2022-141AM,2026-03-14T22:26:42.465408,15.08831740,.00011393,53.2177,330.2971,91.0530,269.0593,0,U,54192,999,18679,.13210282E-4,-.78E-6,0
STARLINK-5263,2022-141AN,2026-03-14T23:09:08.372736,15.08837964,.00010261,53.2177,330.4829,81.1698,278.9411,0,U,54193,999,18679,.70713736E-4,.838E-5,0
STARLINK-5271,2022-141AP,2026-03-14T21:23:08.689056,15.08861977,.00013074,53.2177,330.7363,93.3508,266.7634,0,U,54194,999,18678,.45222618E-3,.6921E-4,0
STARLINK-5258,2022-141AQ,2026-03-14T23:14:27.182688,15.08833411,.00012724,53.2169,330.5055,93.7740,266.3398,0,U,54195,999,18679,-.21982215E-4,-.638E-5,0
STARLINK-5237,2022-141AR,2026-03-14T21:12:31.905504,15.08834889,.00013491,53.2188,330.6888,94.2484,265.8662,0,U,54196,999,18678,.16069745E-4,-.32E-6,0
STARLINK-5246,2022-141AT,2026-03-14T22:42:36.496800,15.08832175,.00012519,53.2187,330.3641,102.4071,257.7062,0,U,54198,999,18679,-.14324986E-3,-.2566E-4,0
STARLINK-5244,2022-141AU,2026-03-14T21:17:50.546976,15.08835358,.00014476,53.2191,330.7120,99.8306,260.2850,0,U,54199,999,18678,-.35487862E-4,-.853E-5,0
STARLINK-5250,2022-141AV,2026-03-14T22:31:58.972800,15.08827540,.00013181,53.2180,330.3205,87.8585,272.2558,0,U,54200,999,18679,.16817474E-3,.2389E-4,0
STARLINK-5199,2022-141AW,2026-03-14T21:28:26.457888,15.08841377,.00011823,53.2182,330.7507,91.3455,268.7673,0,U,54201,999,18678,.76442574E-4,.929E-5,0
STARLINK-5205,2022-141AX,2026-03-14T22:21:22.726656,15.08835613,.00011408,53.2181,330.2753,82.3724,277.7397,0,U,54202,999,18679,.22091972E-3,.3229E-4,0
STARLINK-5247,2022-141AY,2026-03-14T22:37:18.262272,15.08836898,.00015865,53.2189,330.3453,96.8083,263.3090,0,U,54203,999,18679,.83220722E-4,.1037E-4,0
